OBJECT_NAME,OBJECT_ID,EPOCH,MEAN_MOTION,ECCENTRICITY,INCLINATION,RA_OF_ASC_NODE,ARG_OF_PERICENTER,MEAN_ANOMALY,EPHEMERIS_TYPE,CLASSIFICATION_TYPE,NORAD_CAT_ID,ELEMENT_SET_NO,REV_AT_EPOCH,BSTAR,MEAN_MOTION_DOT,MEAN_MOTION_DDOT
TIANMU-1 20,2023-208B,2026-07-17T06:51:13.151232,15.33183836,.00065276,97.4473,315.4185,204.1106,155.9832,0,U,58661,999,14203,.14147402E-3,.4457E-4,0
TIANMU-1 21,2023-208C,2026-07-17T07:01:54.223680,15.35575291,.00068998,97.4535,318.2389,196.4053,163.6968,0,U,58662,999,14218,.15534173E-3,.5292E-4,0
TIANMU-1 22,2023-208D,2026-07-17T06:19:15.611232,15.31444000,.00029477,97.4527,314.6394,209.0204,151.0874,0,U,58663,999,14193,.1333172E-3,.3969E-4,0
TIANMU-1 15,2024-004A,2026-07-17T07:26:11.626656,15.26926089,.00062125,97.4670,24.5006,219.6080,140.4706,0,U,58700,999,14037,.10964961E-3,.2825E-4,0
TIANMU-1 16,2024-004B,2026-07-17T07:10:49.152000,15.27029150,.00045554,97.4618,23.7053,235.6616,124.4193,0,U,58701,999,14037,.10503849E-3,.2711E-4,0
TIANMU-1 17,2024-004C,2026-07-17T06:49:55.075872,15.27026939,.00040079,97.4645,24.1868,241.9695,118.1139,0,U,58702,999,14036,.10688171E-3,.276E-4,0
TIANMU-1 18,2024-004D,2026-07-17T07:50:01.130208,15.26942013,.00039299,97.4662,24.4914,215.2047,144.8932,0,U,58703,999,14037,.10369493E-3,.2668E-4,0
INSAT-3DS,2024-033A,2026-07-17T03:47:50.629632,1.00270806,.00011331,0.0855,264.3862,223.2807,306.3367,0,U,58990,999,4736,0,-.166E-5,0
METEOR-M2 4,2024-039A,2026-07-17T06:57:17.468064,14.22432287,.00082596,98.7027,157.2123,83.5884,276.6234,0,U,59051,999,12354,.14661783E-4,-.11E-6,0
GOES 19,2024-119A,2026-07-17T06:04:19.898976,1.00271001,.00004005,0.0146,136.9734,64.6302,109.3525,0,U,60133,999,726,0,-.258E-5,0
MTG-S1,2025-143A,2026-07-17T06:25:40.353888,1.00274142,.00033767,0.5833,345.6308,260.2047,145.2810,0,U,64723,999,372,0,-.17E-6,0
METOP-SGA1,2025-172A,2026-07-14T18:20:46.629312,14.19819127,.00070989,98.6631,254.9090,333.3306,26.7504,0,U,65159,999,4770,.2916334E-4,.19E-6,0
FENGYUN 3H,2025-219A,2026-07-17T06:30:15.435936,14.19924971,.00010925,98.6770,138.4561,62.3370,297.7917,0,U,65815,999,4165,.21451496E-4,.2E-7,0
