TIANMU-1 20             
1 58661U 23208B   26198.28556888  .00004457  00000+0  14147-3 0  9996
2 58661  97.4473 315.4185 0006527 204.1106 155.9832 15.33183836142037
TIANMU-1 21             
1 58662U 23208C   26198.29298870  .00005292  00000+0  15534-3 0  9991
2 58662  97.4535 318.2389 0006899 196.4053 163.6968 15.35575291142184
TIANMU-1 22             
1 58663U 23208D   26198.26337513  .00003969  00000+0  13332-3 0  9990
2 58663  97.4527 314.6394 0002947 209.0204 151.0874 15.31444000141939
TIANMU-1 15             
1 58700U 24004A   26198.30985679  .00002825  00000+0  10965-3 0  9993
2 58700  97.4670  24.5006 0006212 219.6080 140.4706 15.26926089140374
TIANMU-1 16             
1 58701U 24004B   26198.29918000  .00002711  00000+0  10504-3 0  9999
2 58701  97.4618  23.7053 0004555 235.6616 124.4193 15.27029150140377
TIANMU-1 17             
1 58702U 24004C   26198.28466523  .00002760  00000+0  10688-3 0  9994
2 58702  97.4645  24.1868 0004007 241.9695 118.1139 15.27026939140367
TIANMU-1 18             
1 58703U 24004D   26198.32640197  .00002668  00000+0  10369-3 0  9994
2 58703  97.4662  24.4914 0003929 215.2047 144.8932 15.26942013140376
INSAT-3DS               
1 58990U 24033A   26198.15822488 -.00000166  00000+0  00000+0 0  9999
2 58990   0.0855 264.3862 0001133 223.2807 306.3367  1.00270806 47366
METEOR-M2 4             
1 59051U 24039A   26198.28978551 -.00000011  00000+0  14662-4 0  9994
2 59051  98.7027 157.2123 0008259  83.5884 276.6234 14.22432287123546
GOES 19                 
1 60133U 24119A   26198.25300809 -.00000258  00000+0  00000+0 0  9997
2 60133   0.0146 136.9734 0000400  64.6302 109.3525  1.00271001  7266
MTG-S1                  
1 64723U 25143A   26198.26782817 -.00000017  00000+0  00000+0 0  9991
2 64723   0.5833 345.6308 0003376 260.2047 145.2810  1.00274142  3726
METOP-SGA1              
1 65159U 25172A   26195.76442858  .00000019  00000+0  29163-4 0  9994
2 65159  98.6631 254.9090 0007098 333.3306  26.7504 14.19819127 47700
FENGYUN 3H              
1 65815U 25219A   26198.27101199  .00000002  00000+0  21451-4 0  9998
2 65815  98.6770 138.4561 0001092  62.3370 297.7917 14.19924971 41650
